[Satellite]
VERSION=1.1
NAME=DIAMOND GREEN
NICKNAME=DIAMOND GREEN
TLE1=1 42785U 17036W   19317.41301694  .00000959  00000-0  44365-4 0  9991
TLE2=2 42785  97.3335  11.6439 0013641  75.1111 285.1635 15.22434815132712
STATUS=0
